# Made by eph2tle, compiled Feb 13 2019 14:45:51
# Last updated with 'current' THEMIS data Thu Jan 20 14:31:32 2022
#
# Max error 0.2
#
#    The following TLEs (Two-Line Elements) were generated by fitting
# numerically-integrated ephemerides from the OEM_CARA files at
#
# http://soleil.ssl.berkeley.edu/ground_systems/products/THEMIS/THEMIS_D/
#
# to the SDP4/SGP4 models.  Each TLE is good for the interval between
# its epoch and the epoch of the subsequent TLE (usually one day).
# The maximum deviation between the numerically integrated ephemerides
# and the TLE-based ephemeris, in kilometers,  is given for each TLE
# as the "worst residual".
#
#    The above site gives data covering about 18 days.  These TLEs will
# be updated every week or so to keep them au courant.
#
#    Almost all other TLEs on this site were computed from observations.
# I've done that for the Themis objects in the past,  but they maneuver.
# Using the above ephemerides and fitting TLEs to them appears to work
# much better.  (Space-Track TLEs,  as of early 2019,  are junk.)
#
#    If you use a TLE outside the "correct" time range (between its MJD
# and that of the next TLE),  all bets are off.  I've carefully computed
# and minimized the worst error over the "correct" time frame,  but the
# ephemeris may (or may not) diverge wildly outside of it.
#
#    This fitting is done using the 'eph2tle' code packaged with Find_Orb.
# The code has details on how the TLEs were computed :
#
#    https://github.com/Bill-Gray/find_orb/eph2tle.cpp
#
#    Be warned:  the error given is that between the numerically
# integrated ephems and the TLE model.  The THEMIS ephemerides appear
# to be pretty good,  so I think (but am not sure) that in this case,
# the stated errors are close to the real errors.  But if there are
# additional errors,  you should regard the "worst residuals" shown
# below as a lower limit on how bad the TLEs are;  there's no guarantee
# that they aren't actually worse than that.
#
# Ephem range: 58580.000000 59617.000000 1.000000
# Ephemeris start:  1 Jan 2022  0:00:00
# Ephemeris end:    7 Feb 2022  0:00:00
#
# 1 NoradU COSPAR   Epoch.epoch     dn/dt/2  d2n/dt2/6 BSTAR    T El# C
# 2 NoradU Inclina RAAscNode Eccent  ArgPeri MeanAno  MeanMotion Rev# C

# Worst residual: 13.84 km
# MJD 59580.000000 (2022 Jan  1  0:00)
NORAD 30580 = 2007-004A = THEMIS A
1 30580U 07004A   22001.49919926  .00000000  00000-0  00000-0 0 14526
2 30580 015.7894 000.3652 8390729 133.7093 120.9746 00.87834315    00

# Worst residual: 12.11 km
# MJD 59581.000000 (2022 Jan  2  0:00)
NORAD 30580 = 2007-004A = THEMIS A
1 30580U 07004A   22002.49919926  .00000000  00000-0  00000-0 0 14527
2 30580 015.7817 000.2913 8391772 133.8859 077.1555 00.87837450    08

# Worst residual: 11.11 km
# MJD 59582.000000 (2022 Jan  3  0:00)
NORAD 30580 = 2007-004A = THEMIS A
1 30580U 07004A   22003.49919926  .00000000  00000-0  00000-0 0 14528
2 30580 015.7700 000.2320 8393387 134.0531 033.3184 00.87858932    05
#
# 1 NoradU COSPAR   Epoch.epoch     dn/dt/2  d2n/dt2/6 BSTAR    T El# C
# 2 NoradU Inclina RAAscNode Eccent  ArgPeri MeanAno  MeanMotion Rev# C

# Worst residual: 12.28 km
# MJD 59583.000000 (2022 Jan  4  0:00)
NORAD 30580 = 2007-004A = THEMIS A
1 30580U 07004A   22004.49919926  .00000000  00000-0  00000-0 0 14664
2 30580 015.7568 000.1752 8394196 134.2239 349.4454 00.87857157    00

# Worst residual: 12.12 km
# MJD 59584.000000 (2022 Jan  5  0:00)
NORAD 30580 = 2007-004A = THEMIS A
1 30580U 07004A   22005.49919926  .00000000  00000-0  00000-0 0 14665
2 30580 015.7445 000.1132 8394153 134.4016 305.5750 00.87839452    04

# Worst residual: 11.77 km
# MJD 59585.000000 (2022 Jan  6  0:00)
NORAD 30580 = 2007-004A = THEMIS A
1 30580U 07004A   22006.49919926  .00000000  00000-0  00000-0 0 14666
2 30580 015.7338 000.0430 8393271 134.5817 261.7427 00.87829974    07

# Worst residual: 11.37 km
# MJD 59586.000000 (2022 Jan  7  0:00)
NORAD 30580 = 2007-004A = THEMIS A
1 30580U 07004A   22007.49919926  .00000000  00000-0  00000-0 0 14667
2 30580 015.7237 359.9663 8393324 134.7669 217.9196 00.87841140    00

# Worst residual: 12.07 km
# MJD 59587.000000 (2022 Jan  8  0:00)
NORAD 30580 = 2007-004A = THEMIS A
1 30580U 07004A   22008.49919926  .00000000  00000-0  00000-0 0 14668
2 30580 015.7197 359.8697 8393000 134.9610 174.1039 00.87847611    09

# Worst residual: 11.08 km
# MJD 59588.000000 (2022 Jan  9  0:00)
NORAD 30580 = 2007-004A = THEMIS A
1 30580U 07004A   22009.49919926  .00000000  00000-0  00000-0 0 14669
2 30580 015.7142 359.7748 8391521 135.1549 130.2881 00.87840338    02

# Worst residual: 11.40 km
# MJD 59589.000000 (2022 Jan 10  0:00)
NORAD 30580 = 2007-004A = THEMIS A
1 30580U 07004A   22010.49919926  .00000000  00000-0  00000-0 0 14661
2 30580 015.7081 359.6929 8391346 135.3341 086.4884 00.87845082    07

# Worst residual: 10.81 km
# MJD 59590.000000 (2022 Jan 11  0:00)
NORAD 30580 = 2007-004A = THEMIS A
1 30580U 07004A   22011.49919926  .00000000  00000-0  00000-0 0 14662
2 30580 015.7033 359.6044 8391436 135.5225 042.6757 00.87858310    06
#
# 1 NoradU COSPAR   Epoch.epoch     dn/dt/2  d2n/dt2/6 BSTAR    T El# C
# 2 NoradU Inclina RAAscNode Eccent  ArgPeri MeanAno  MeanMotion Rev# C

# Worst residual: 8.66 km
# MJD 59591.000000 (2022 Jan 12  0:00)
NORAD 30580 = 2007-004A = THEMIS A
1 30580U 07004A   22012.49919926  .00000000  00000-0  00000-0 0 14731
2 30580 015.6968 359.5190 8391970 135.7117 358.8506 00.87862329    07

# Worst residual: 10.36 km
# MJD 59592.000000 (2022 Jan 13  0:00)
NORAD 30580 = 2007-004A = THEMIS A
1 30580U 07004A   22013.49919926  .00000000  00000-0  00000-0 0 14732
2 30580 015.6930 359.4233 8392320 135.9100 315.0250 00.87849565    05

# Worst residual: 10.68 km
# MJD 59593.000000 (2022 Jan 14  0:00)
NORAD 30580 = 2007-004A = THEMIS A
1 30580U 07004A   22014.49919926  .00000000  00000-0  00000-0 0 14733
2 30580 015.6867 359.3335 8392554 136.1040 271.2048 00.87840043    01

# Worst residual: 15.73 km
# MJD 59594.000000 (2022 Jan 15  0:00)
NORAD 30580 = 2007-004A = THEMIS A
1 30580U 07004A   22015.49919926  .00000000  00000-0  00000-0 0 14734
2 30580 015.6813 359.2417 8393293 136.3000 227.3923 00.87843111    04

# Worst residual: 7.01 km
# MJD 59595.000000 (2022 Jan 16  0:00)
NORAD 30580 = 2007-004A = THEMIS A
1 30580U 07004A   22016.49919926  .00000000  00000-0  00000-0 0 14735
2 30580 015.6774 359.1455 8393450 136.4980 183.5781 00.87844774    05

# Worst residual: 9.66 km
# MJD 59596.000000 (2022 Jan 17  0:00)
NORAD 30580 = 2007-004A = THEMIS A
1 30580U 07004A   22017.49919926  .00000000  00000-0  00000-0 0 14736
2 30580 015.6748 359.0426 8392071 136.7037 139.7624 00.87837638    07

# Worst residual: 11.42 km
# MJD 59597.000000 (2022 Jan 18  0:00)
NORAD 30580 = 2007-004A = THEMIS A
1 30580U 07004A   22018.49919926  .00000000  00000-0  00000-0 0 14737
2 30580 015.6693 358.9517 8391951 136.8960 095.9536 00.87842302    06

# Worst residual: 12.27 km
# MJD 59598.000000 (2022 Jan 19  0:00)
NORAD 30580 = 2007-004A = THEMIS A
1 30580U 07004A   22019.49919926  .00000000  00000-0  00000-0 0 14738
2 30580 015.6667 358.8530 8391615 137.0946 052.1506 00.87851749    02
#
# 1 NoradU COSPAR   Epoch.epoch     dn/dt/2  d2n/dt2/6 BSTAR    T El# C
# 2 NoradU Inclina RAAscNode Eccent  ArgPeri MeanAno  MeanMotion Rev# C

# Worst residual: 13.26 km
# MJD 59599.000000 (2022 Jan 20  0:00)
NORAD 30580 = 2007-004A = THEMIS A
1 30580U 07004A   22020.49919926  .00000000  00000-0  00000-0 0 14819
2 30580 015.6643 358.7526 8391569 137.2989 008.3300 00.87857069    03

# Worst residual: 11.01 km
# MJD 59600.000000 (2022 Jan 21  0:00)
NORAD 30580 = 2007-004A = THEMIS A
1 30580U 07004A   22021.49919926  .00000000  00000-0  00000-0 0 14810
2 30580 015.6610 358.6527 8391922 137.5011 324.5147 00.87850520    06

# Worst residual: 9.22 km
# MJD 59601.000000 (2022 Jan 22  0:00)
NORAD 30580 = 2007-004A = THEMIS A
1 30580U 07004A   22022.49919926  .00000000  00000-0  00000-0 0 14811
2 30580 015.6563 358.5578 8391968 137.6979 280.6985 00.87838222    09

# Worst residual: 12.30 km
# MJD 59602.000000 (2022 Jan 23  0:00)
NORAD 30580 = 2007-004A = THEMIS A
1 30580U 07004A   22023.49919926  .00000000  00000-0  00000-0 0 14812
2 30580 015.6478 358.4787 8392318 137.8854 236.8688 00.87837133    02

# Worst residual: 7.10 km
# MJD 59603.000000 (2022 Jan 24  0:00)
NORAD 30580 = 2007-004A = THEMIS A
1 30580U 07004A   22024.49919926  .00000000  00000-0  00000-0 0 14813
2 30580 015.6441 358.3797 8393373 138.0886 193.0529 00.87843980    07

# Worst residual: 11.30 km
# MJD 59604.000000 (2022 Jan 25  0:00)
NORAD 30580 = 2007-004A = THEMIS A
1 30580U 07004A   22025.49919926  .00000000  00000-0  00000-0 0 14814
2 30580 015.6399 358.2829 8391892 138.2898 149.2292 00.87838165    02

# Worst residual: 10.91 km
# MJD 59605.000000 (2022 Jan 26  0:00)
NORAD 30580 = 2007-004A = THEMIS A
1 30580U 07004A   22026.49919926  .00000000  00000-0  00000-0 0 14815
2 30580 015.6320 358.2016 8391262 138.4758 105.3999 00.87843075    05

# Worst residual: 11.35 km
# MJD 59606.000000 (2022 Jan 27  0:00)
NORAD 30580 = 2007-004A = THEMIS A
1 30580U 07004A   22027.49919926  .00000000  00000-0  00000-0 0 14816
2 30580 015.6262 358.1106 8390649 138.6664 061.5865 00.87854507    02

# Worst residual: 9.67 km
# MJD 59607.000000 (2022 Jan 28  0:00)
NORAD 30580 = 2007-004A = THEMIS A
1 30580U 07004A   22028.49919926  .00000000  00000-0  00000-0 0 14817
2 30580 015.6219 358.0185 8390241 138.8601 017.7664 00.87860778    08

# Worst residual: 11.74 km
# MJD 59608.000000 (2022 Jan 29  0:00)
NORAD 30580 = 2007-004A = THEMIS A
1 30580U 07004A   22029.49919926  .00000000  00000-0  00000-0 0 14818
2 30580 015.6152 357.9337 8391151 139.0482 333.9386 00.87855424    08

# Worst residual: 11.20 km
# MJD 59609.000000 (2022 Jan 30  0:00)
NORAD 30580 = 2007-004A = THEMIS A
1 30580U 07004A   22030.49919926  .00000000  00000-0  00000-0 0 14810
2 30580 015.6044 357.8617 8392442 139.2218 290.1144 00.87844636    00

# Worst residual: 8.49 km
# MJD 59610.000000 (2022 Jan 31  0:00)
NORAD 30580 = 2007-004A = THEMIS A
1 30580U 07004A   22031.49919926  .00000000  00000-0  00000-0 0 14811
2 30580 015.5914 357.7988 8393462 139.3969 246.2657 00.87833171    05

# Worst residual: 7.38 km
# MJD 59611.000000 (2022 Feb  1  0:00)
NORAD 30580 = 2007-004A = THEMIS A
1 30580U 07004A   22032.49919926  .00000000  00000-0  00000-0 0 14812
2 30580 015.5777 357.7347 8394610 139.5781 202.4168 00.87832067    05

# Worst residual: 11.74 km
# MJD 59612.000000 (2022 Feb  2  0:00)
NORAD 30580 = 2007-004A = THEMIS A
1 30580U 07004A   22033.49919926  .00000000  00000-0  00000-0 0 14813
2 30580 015.5665 357.6564 8393903 139.7715 158.5722 00.87833416    00

# Worst residual: 9.67 km
# MJD 59613.000000 (2022 Feb  3  0:00)
NORAD 30580 = 2007-004A = THEMIS A
1 30580U 07004A   22034.49919926  .00000000  00000-0  00000-0 0 14814
2 30580 015.5552 357.5753 8392703 139.9639 114.7278 00.87840736    01

# Worst residual: 12.97 km
# MJD 59614.000000 (2022 Feb  4  0:00)
NORAD 30580 = 2007-004A = THEMIS A
1 30580U 07004A   22035.49919926  .00000000  00000-0  00000-0 0 14815
2 30580 015.5442 357.4972 8391578 140.1469 070.8970 00.87851670    05

# Worst residual: 9.98 km
# MJD 59615.000000 (2022 Feb  5  0:00)
NORAD 30580 = 2007-004A = THEMIS A
1 30580U 07004A   22036.49919926  .00000000  00000-0  00000-0 0 14816
2 30580 015.5375 357.4133 8390507 140.3316 027.0852 00.87859267    06

# Worst residual: 10.83 km
# MJD 59616.000000 (2022 Feb  6  0:00)
NORAD 30580 = 2007-004A = THEMIS A
1 30580U 07004A   22037.49919926  .00000000  00000-0  00000-0 0 14817
2 30580 015.5336 357.3134 8390172 140.5347 343.2642 00.87855654    03
Avg worst resid: 10.56 km
Worst residual in entire run: 13.26 km on MJD 59599.0
       1     3     10    30    100   300   1K    3K    10K   km
     0     0     7    11     0     0     0     0     0     0
